NORAD_CAT_ID,OBJECT_NAME,OBJECT_TYPE,EPOCH,MEAN_MOTION,ECCENTRICITY,INCLINATION,RA_OF_ASC_NODE,ARG_OF_PERICENTER,MEAN_ANOMALY,BSTAR,MEAN_MOTION_DOT,MEAN_MOTION_DDOT,TLE_LINE0,TLE_LINE1,TLE_LINE2,SEMIMAJOR_AXIS,PERIOD,APOGEE,PERIGEE,DECAYED
52693.0,STARLINK-3946,PAYLOAD,2023-12-24 11:53:11,15.08832643,0.0001138,53.2159,163.2658,109.282,250.8296,0.00013657,1.886e-05,0.0,0 STARLINK-3946,1 52693U 22053AP  23358.49527334  .00001886  00000-0  13657-3 0  9993,2 52693  53.2159 163.2658 0001138 109.2820 250.8296 15.08832643 89041,6917.903,95.438,540.555,538.981,0.0
52693.0,STARLINK-3946,PAYLOAD,2023-12-24 21:25:30,15.08840073,0.0001097,53.2157,161.4814,104.2214,255.89,0.00019852,2.873e-05,0.0,0 STARLINK-3946,1 52693U 22053AP  23358.89271022  .00002873  00000-0  19852-3 0  9997,2 52693  53.2157 161.4814 0001097 104.2214 255.8900 15.08840073 89503,6917.88,95.438,540.504,538.986,0.0
52693.0,STARLINK-3946,PAYLOAD,2023-12-25 14:54:45,15.08824399,0.0001206,53.2153,158.2081,93.0055,267.1075,0.00048435,7.426e-05,0.0,0 STARLINK-3946,1 52693U 22053AP  23359.62136094  .00007426  00000-0  48435-3 0  9996,2 52693  53.2153 158.2081 0001206  93.0055 267.1075 15.08824399 89613,6917.928,95.439,540.627,538.959,0.0
52693.0,STARLINK-3946,PAYLOAD,2023-12-25 19:40:54,15.08836108,0.0001141,53.2164,157.3165,95.2026,264.9097,0.00019899,2.88e-05,0.0,0 STARLINK-3946,1 52693U 22053AP  23359.82007463  .00002880  00000-0  19899-3 0  9996,2 52693  53.2164 157.3165 0001141  95.2026 264.9097 15.08836108 89247,6917.892,95.438,540.547,538.968,0.0
52693.0,STARLINK-3946,PAYLOAD,2023-12-26 14:45:31,15.08851234,0.0001195,53.2152,153.7512,119.4771,240.6341,9.6483e-05,1.248e-05,0.0,0 STARLINK-3946,1 52693U 22053AP  23360.61494554  .00001248  00000-0  96483-4 0  9998,2 52693  53.2152 153.7512 0001195 119.4771 240.6341 15.08851234 89762,6917.846,95.437,540.538,538.884,0.0
52693.0,STARLINK-3946,PAYLOAD,2023-12-26 17:56:17,15.08851416,0.0001048,53.2143,153.1574,94.7171,265.3941,0.00016089,2.274e-05,0.0,0 STARLINK-3946,1 52693U 22053AP  23360.74742505  .00002274  00000-0  16089-3 0  9997,2 52693  53.2143 153.1574 0001048  94.7171 265.3941 15.08851416 89380,6917.845,95.437,540.435,538.986,0.0
52693.0,STARLINK-3946,PAYLOAD,2023-12-27 09:50:09,15.08833799,0.000105,53.2157,150.1821,99.8866,260.2245,-1.7278e-05,-5.63e-06,0.0,0 STARLINK-3946,1 52693U 22053AP  23361.40983619 -.00000563  00000-0 -17278-4 0  9997,2 52693  53.2157 150.1821 0001050  99.8866 260.2245 15.08833799 89483,6917.899,95.438,540.491,539.038,0.0
52693.0,STARLINK-3946,PAYLOAD,2023-12-27 14:36:19,15.0883395,0.0001094,53.215,149.2907,90.5876,269.5242,-4.0357e-05,-9.3e-06,0.0,0 STARLINK-3946,1 52693U 22053AP  23361.60855672 -.00000930  00000-0 -40357-4 0  9998,2 52693  53.2150 149.2907 0001094  90.5876 269.5242 15.08833950 89913,6917.899,95.438,540.521,539.007,0.0
52693.0,STARLINK-3946,PAYLOAD,2023-12-27 17:47:05,15.08836144,0.0001182,53.2146,148.6967,80.8692,279.2434,1.0547e-05,-1.2e-06,0.0,0 STARLINK-3946,1 52693U 22053AP  23361.74103686 -.00000120  00000-0  10547-4 0  9992,2 52693  53.2146 148.6967 0001182  80.8692 279.2434 15.08836144 89934,6917.892,95.438,540.575,538.939,0.0
52693.0,STARLINK-3946,PAYLOAD,2023-12-28 14:27:06,15.08843059,0.0001486,53.2157,144.8326,60.8009,299.3131,7.9235e-05,9.73e-06,0.0,0 STARLINK-3946,1 52693U 22053AP  23362.60215742  .00000973  00000-0  79235-4 0  9999,2 52693  53.2157 144.8326 0001486  60.8009 299.3131 15.08843059 90066,6917.871,95.437,540.764,538.708,0.0
52693.0,STARLINK-3946,PAYLOAD,2023-12-28 16:02:29,15.08845062,0.0001385,53.2154,144.5344,67.6883,292.4256,0.00011541,1.55e-05,0.0,0 STARLINK-3946,1 52693U 22053AP  23362.66839616  .00001550  00000-0  11541-3 0  9994,2 52693  53.2154 144.5344 0001385  67.6883 292.4256 15.08845062 89676,6917.865,95.437,540.688,538.772,0.0
52693.0,STARLINK-3946,PAYLOAD,2023-12-29 14:17:52,15.08870824,0.0001102,53.2154,140.3729,70.7227,289.3884,-0.00079819,-0.00012979,0.0,0 STARLINK-3946,1 52693U 22053AP  23363.59574296 -.00012979  00000-0 -79819-3 0  9998,2 52693  53.2154 140.3729 0001102  70.7227 289.3884 15.08870824 90219,6917.786,95.436,540.414,538.889,0.0
52693.0,STARLINK-3946,PAYLOAD,2023-12-30 12:33:17,15.08839846,0.000146,53.2162,136.2087,100.2881,259.8276,5.6532e-05,6.12e-06,0.0,0 STARLINK-3946,1 52693U 22053AP  23364.52312062  .00000612  00000-0  56532-4 0  9990,2 52693  53.2162 136.2087 0001460 100.2881 259.8276 15.08839846 89956,6917.881,95.438,540.756,538.736,0.0
52693.0,STARLINK-3946,PAYLOAD,2023-12-30 14:08:40,15.08840177,0.000143,53.2168,135.9114,100.2117,259.9036,5.6496e-05,6.11e-06,0.0,0 STARLINK-3946,1 52693U 22053AP  23364.58936084  .00000611  00000-0  56496-4 0  9990,2 52693  53.2168 135.9114 0001430 100.2117 259.9036 15.08840177 90369,6917.88,95.438,540.734,538.756,0.0
52693.0,STARLINK-3946,PAYLOAD,2023-12-30 15:44:03,15.08840578,0.0001417,53.2168,135.6142,98.1084,262.0069,5.5244e-05,5.91e-06,0.0,0 STARLINK-3946,1 52693U 22053AP  23364.65560045  .00000591  00000-0  55244-4 0  9995,2 52693  53.2168 135.6142 0001417  98.1084 262.0069 15.08840578 90377,6917.879,95.438,540.724,538.763,0.0
52693.0,STARLINK-3946,PAYLOAD,2023-12-31 13:59:27,15.08837987,0.0001417,53.2171,131.4513,99.177,260.9382,5.9189e-05,6.54e-06,0.0,0 STARLINK-3946,1 52693U 22053AP  23365.58296283  .00000654  00000-0  59189-4 0  9990,2 52693  53.2171 131.4513 0001417  99.1770 260.9382 15.08837987 90117,6917.887,95.438,540.732,538.771,0.0
52693.0,STARLINK-3946,PAYLOAD,2024-01-01 13:50:15,15.08838388,0.0001431,53.2172,126.9922,105.9114,254.2035,7.6e-05,9.22e-06,0.0,0 STARLINK-3946,1 52693U 22053AP  24001.57656327  .00000922  00000-0  76000-4 0  9995,2 52693  53.2172 126.9922 0001431 105.9114 254.2035 15.08838388 90662,6917.885,95.438,540.74,538.76,0.0
52693.0,STARLINK-3946,PAYLOAD,2024-01-01 15:25:38,15.08838757,0.0001394,53.2171,126.6948,103.1166,256.9982,7.6031e-05,9.22e-06,0.0,0 STARLINK-3946,1 52693U 22053AP  24001.64280319  .00000922  00000-0  76031-4 0  9991,2 52693  53.2171 126.6948 0001394 103.1166 256.9982 15.08838757 90278,6917.884,95.438,540.714,538.785,0.0
52693.0,STARLINK-3946,PAYLOAD,2024-01-02 13:41:02,15.08840468,0.0001374,53.2164,122.5293,101.7924,258.3223,6.5428e-05,7.54e-06,0.0,0 STARLINK-3946,1 52693U 22053AP  24002.57016398  .00000754  00000-0  65428-4 0  9999,2 52693  53.2164 122.5293 0001374 101.7924 258.3223 15.08840468 90818,6917.879,95.438,540.694,538.793,0.0
52693.0,STARLINK-3946,PAYLOAD,2024-01-03 11:56:26,15.08835148,0.0001394,53.2167,118.3664,96.9611,263.154,3.0523e-05,1.98e-06,0.0,0 STARLINK-3946,1 52693U 22053AP  24003.49753000  .00000198  00000-0  30523-4 0  9999,2 52693  53.2167 118.3664 0001394  96.9611 263.1540 15.08835148 90552,6917.895,95.438,540.725,538.796,0.0
52693.0,STARLINK-3946,PAYLOAD,2024-01-03 13:31:50,15.08820031,0.0001527,53.2174,118.0698,79.9295,280.1869,0.00023764,3.494e-05,0.0,0 STARLINK-3946,1 52693U 22053AP  24003.56377353  .00003494  00000-0  23764-3 0  9990,2 52693  53.2174 118.0698 0001527  79.9295 280.1869 15.08820031 90964,6917.941,95.439,540.863,538.75,0.0
52693.0,STARLINK-3946,PAYLOAD,2024-01-03 15:07:12,15.08836473,0.0001434,53.2167,117.7721,72.973,287.142,3.8764e-05,3.29e-06,0.0,0 STARLINK-3946,1 52693U 22053AP  24003.63001045  .00000329  00000-0  38764-4 0  9991,2 52693  53.2167 117.7721 0001434  72.9730 287.1420 15.08836473 90971,6917.891,95.438,540.748,538.764,0.0
52693.0,STARLINK-3946,PAYLOAD,2024-01-04 13:22:34,15.08865877,0.0001341,53.217,113.6061,92.0452,268.0694,0.00021996,3.217e-05,0.0,0 STARLINK-3946,1 52693U 22053AP  24004.55734655  .00003217  00000-0  21996-3 0  9990,2 52693  53.2170 113.6061 0001341  92.0452 268.0694 15.08865877 91116,6917.801,95.436,540.594,538.739,0.0
52693.0,STARLINK-3946,PAYLOAD,2024-01-04 14:57:59,15.08837784,0.0001154,53.217,113.3087,107.5043,252.6075,-2.6424e-05,-7.08e-06,0.0,0 STARLINK-3946,1 52693U 22053AP  24004.62360870 -.00000708  00000-0 -26424-4 0  9998,2 52693  53.2170 113.3087 0001154 107.5043 252.6075 15.08837784 90725,6917.887,95.438,540.55,538.954,0.0
52693.0,STARLINK-3946,PAYLOAD,2024-01-05 13:13:23,15.08841116,0.000139,53.2164,109.1483,71.0758,289.0385,7.652e-05,9.3e-06,0.0,0 STARLINK-3946,1 52693U 22053AP  24005.55096744  .00000930  00000-0  76520-4 0  9994,2 52693  53.2164 109.1483 0001390  71.0758 289.0385 15.08841116 91263,6917.877,95.437,540.704,538.78,0.0
52693.0,STARLINK-3946,PAYLOAD,2024-01-06 11:28:47,15.08842959,0.0001307,53.2169,104.9844,94.382,265.7321,2.1227e-05,5e-07,0.0,0 STARLINK-3946,1 52693U 22053AP  24006.47832746  .00000050  00000-0  21227-4 0  9993,2 52693  53.2169 104.9844 0001307  94.3820 265.7321 15.08842959 91007,6917.871,95.437,540.641,538.832,0.0
52693.0,STARLINK-3946,PAYLOAD,2024-01-06 13:04:10,15.08846124,0.0001345,53.2169,104.686,95.5196,264.595,1.684e-05,-2e-07,0.0,0 STARLINK-3946,1 52693U 22053AP  24006.54456548 -.00000020  00000-0  16840-4 0  9996,2 52693  53.2169 104.6860 0001345  95.5196 264.5950 15.08846124 91411,6917.862,95.437,540.657,538.796,0.0
52693.0,STARLINK-3946,PAYLOAD,2024-01-07 11:19:34,15.08838315,0.0001422,53.2165,100.5245,86.8914,273.224,2.3007e-05,7.8e-07,0.0,0 STARLINK-3946,1 52693U 22053AP  24007.47193142  .00000078  00000-0  23007-4 0  9992,2 52693  53.2165 100.5245 0001422  86.8914 273.2240 15.08838315 91159,6917.886,95.438,540.734,538.767,0.0
52693.0,STARLINK-3946,PAYLOAD,2024-01-07 12:54:57,15.08839588,0.0001436,53.2166,100.2271,86.4271,273.6885,3.2272e-05,2.26e-06,0.0,0 STARLINK-3946,1 52693U 22053AP  24007.53817057  .00000226  00000-0  32272-4 0  9996,2 52693  53.2166 100.2271 0001436  86.4271 273.6885 15.08839588 91560,6917.882,95.438,540.74,538.753,0.0
52693.0,STARLINK-3946,PAYLOAD,2024-01-08 12:45:44,15.08844761,0.0001551,53.2178,95.7671,95.9308,264.1861,8.7314e-05,1.102e-05,0.0,0 STARLINK-3946,1 52693U 22053AP  24008.53176585  .00001102  00000-0  87314-4 0  9992,2 52693  53.2178  95.7671 0001551  95.9308 264.1861 15.08844761 91714,6917.866,95.437,540.804,538.658,0.0
